STARLINK-31876          
1 59938U 24106S   26067.11935757  .00005441  00000+0  20708-3 0  9999
2 59938  43.0018 341.3059 0000717 275.3180  84.7590 15.27583006100290
FLOCK 4G-24             
1 62637U 25009AE  26068.72509072  .00010513  00000+0  38996-3 0  9991
2 62637  97.4061 151.5140 0001802 280.2808  79.8228 15.27784978 63732
